{
    "links": {
        "self": "http://www.neowsapp.com/rest/v1/neo/3739387?api_key=iIulBulltgU6a56xZRHN4H3l9WmuAYTsLGpBGhQ2"
    },
    "id": "3739387",
    "neo_reference_id": "3739387",
    "name": "(2016 AD65)",
    "designation": "2016 AD65",
    "nasa_jpl_url": "http://ssd.jpl.nasa.gov/sbdb.cgi?sstr=3739387",
    "absolute_magnitude_h": 27.0,
    "estimated_diameter": {
        "kilometers": {
            "estimated_diameter_min": 0.0105816886,
            "estimated_diameter_max": 0.023661375
        },
        "meters": {
            "estimated_diameter_min": 10.5816885933,
            "estimated_diameter_max": 23.6613750114
        },
        "miles": {
            "estimated_diameter_min": 0.0065751544,
            "estimated_diameter_max": 0.0147024923
        },
        "feet": {
            "estimated_diameter_min": 34.7168272045,
            "estimated_diameter_max": 77.6291855923
        }
    },
    "is_potentially_hazardous_asteroid": false,
    "close_approach_data": [
        {
            "close_approach_date": "1964-01-14",
            "close_approach_date_full": "1964-Jan-14 17:22",
            "epoch_date_close_approach": -188203080000,
            "relative_velocity": {
                "kilometers_per_second": "14.964593517",
                "kilometers_per_hour": "53872.5366612673",
                "miles_per_hour": "33474.2992382191"
            },
            "miss_distance": {
                "astronomical": "0.2099635221",
                "lunar": "81.6758100969",
                "kilometers": "31410095.683857927",
                "miles": "19517328.4274043126"
            },
            "orbiting_body": "Earth"
        },
        {
            "close_approach_date": "2015-12-27",
            "close_approach_date_full": "2015-Dec-27 21:13",
            "epoch_date_close_approach": 1451250780000,
            "relative_velocity": {
                "kilometers_per_second": "8.9273672504",
                "kilometers_per_hour": "32138.5221014197",
                "miles_per_hour": "19969.6278024071"
            },
            "miss_distance": {
                "astronomical": "0.0176318657",
                "lunar": "6.8587957573",
                "kilometers": "2637689.552846059",
                "miles": "1638984.2874272542"
            },
            "orbiting_body": "Earth"
        }
    ],
    "orbital_data": {
        "orbit_id": "4",
        "orbit_determination_date": "2017-04-06 08:29:21",
        "first_observation_date": "2016-01-05",
        "last_observation_date": "2016-01-13",
        "data_arc_in_days": 8,
        "observations_used": 11,
        "orbit_uncertainty": "8",
        "minimum_orbit_intersection": ".00534059",
        "jupiter_tisserand_invariant": "4.033",
        "epoch_osculation": "2457394.5",
        "eccentricity": ".460596607750071",
        "semi_major_axis": "1.728046620196878",
        "inclination": "2.080702255864743",
        "ascending_node_longitude": "100.7097203883836",
        "orbital_period": "829.7200966710789",
        "perihelion_distance": ".9321142089002206",
        "perihelion_argument": "317.7029243562256",
        "aphelion_distance": "2.523979031493535",
        "perihelion_time": "2457355.741516001403",
        "mean_anomaly": "16.81657982671022",
        "mean_motion": ".4338812588056581",
        "equinox": "J2000",
        "orbit_class": {
            "orbit_class_type": "APO",
            "orbit_class_description": "Near-Earth asteroid orbits which cross the Earth’s orbit similar to that of 1862 Apollo",
            "orbit_class_range": "a (semi-major axis) > 1.0 AU; q (perihelion) < 1.017 AU"
        }
    },
    "is_sentry_object": false
}